ONEWEB-0588             
1 55153U 23004P   24173.87974944  .00000046  00000+0  84030-4 0  9995
2 55153  87.9148 119.8949 0001527  74.6202 285.5099 13.18685130 74101
ONEWEB-0598             
1 55154U 23004Q   24173.95946447  .00000456  00000+0  12507-2 0  9995
2 55154  87.8960 165.4102 0002036  65.3364 294.7976 13.11418823 70842
ONEWEB-0599             
1 55155U 23004R   24173.91039110 -.00000012  00000+0 -64359-4 0  9996
2 55155  87.9174 150.2366 0002212  81.9949 278.1433 13.17630298 71971
ONEWEB-0614             
1 55156U 23004S   24173.95437589  .00000317  00000+0  85945-3 0  9992
2 55156  87.8964 165.4150 0001834  98.8477 261.2859 13.11419023 70787
ONEWEB-0616             
1 55157U 23004T   24173.95265731 -.00000013  00000+0 -65389-4 0  9997
2 55157  87.9171 150.2360 0003319  83.3537 276.7972 13.17761963 72193
ONEWEB-0617             
1 55158U 23004U   24173.94249975 -.00000229  00000+0 -68065-3 0  9991
2 55158  87.8959 165.4124 0001588  92.2826 267.8483 13.11418963 70806
ONEWEB-0618             
1 55159U 23004V   24173.80788208  .00000194  00000+0  72399-4 0  9999
2 55159  86.9065  91.6979 0011058 271.3794  88.6131 14.26793307 76002
ONEWEB-0619             
1 55160U 23004W   24173.90880318  .00000022  00000+0  22724-4 0  9994
2 55160  87.9169 150.2215 0002566  94.6068 265.5357 13.17636856 72083
